NORAD_CAT_ID,OBJECT_NAME,OBJECT_TYPE,EPOCH,MEAN_MOTION,ECCENTRICITY,INCLINATION,RA_OF_ASC_NODE,ARG_OF_PERICENTER,MEAN_ANOMALY,BSTAR,MEAN_MOTION_DOT,MEAN_MOTION_DDOT,TLE_LINE0,TLE_LINE1,TLE_LINE2,SEMIMAJOR_AXIS,PERIOD,APOGEE,PERIGEE,DECAYED
52106.0,STARLINK-3670,PAYLOAD,2024-07-16 04:35:33,15.08846218,0.0001422,53.2145,269.3561,87.9043,272.2112,0.000292,4.363e-05,0.0,0 STARLINK-3670,1 52106U 22029U   24198.19135702  .00004363  00000-0  29200-3 0  9993,2 52106  53.2145 269.3561 0001422  87.9043 272.2112 15.08846218129842,6917.861,95.437,540.71,538.743,0.0
52106.0,STARLINK-3670,PAYLOAD,2024-07-16 10:57:05,15.08841988,0.0001744,53.2158,268.1631,92.8286,267.2906,0.00018464,2.652e-05,0.0,0 STARLINK-3670,1 52106U 22029U   24198.45631907  .00002652  00000-0  18464-3 0  9999,2 52106  53.2158 268.1631 0001744  92.8286 267.2906 15.08841988129880,6917.874,95.437,540.946,538.533,0.0
52106.0,STARLINK-3670,PAYLOAD,2024-07-17 10:47:53,15.08842144,0.0001535,53.215,263.7062,77.2384,282.878,0.00025795,3.82e-05,0.0,0 STARLINK-3670,1 52106U 22029U   24199.44992307  .00003820  00000-0  25795-3 0  9996,2 52106  53.2150 263.7062 0001535  77.2384 282.8780 15.08842144130032,6917.874,95.437,540.801,538.677,0.0
52106.0,STARLINK-3670,PAYLOAD,2024-07-18 10:38:40,15.08842866,0.0001502,53.2154,259.244,81.747,278.3692,0.00017075,2.431e-05,0.0,0 STARLINK-3670,1 52106U 22029U   24200.44352392  .00002431  00000-0  17075-3 0  9992,2 52106  53.2154 259.2440 0001502  81.7470 278.3692 15.08842866130185,6917.872,95.437,540.776,538.698,0.0
52106.0,STARLINK-3670,PAYLOAD,2024-07-19 10:29:27,15.08839686,0.0001483,53.2151,254.7814,82.4939,277.6221,0.00015575,2.192e-05,0.0,0 STARLINK-3670,1 52106U 22029U   24201.43712623  .00002192  00000-0  15575-3 0  9996,2 52106  53.2151 254.7814 0001483  82.4939 277.6221 15.08839686130336,6917.881,95.438,540.772,538.72,0.0
52106.0,STARLINK-3670,PAYLOAD,2024-07-19 20:01:46,15.08844922,0.0001532,53.2156,253.0003,87.14,272.9768,0.00016841,2.394e-05,0.0,0 STARLINK-3670,1 52106U 22029U   24201.83456260  .00002394  00000-0  16841-3 0  9993,2 52106  53.2156 253.0003 0001532  87.1400 272.9768 15.08844922130392,6917.865,95.437,540.79,538.671,0.0
52106.0,STARLINK-3670,PAYLOAD,2024-07-20 10:20:14,15.08836454,0.0001721,53.2167,250.3276,98.2336,261.8852,1.3914e-05,-6.7e-07,0.0,0 STARLINK-3670,1 52106U 22029U   24202.43072744 -.00000067  00000-0  13914-4 0  9996,2 52106  53.2167 250.3276 0001721  98.2336 261.8852 15.08836454130489,6917.891,95.438,540.947,538.566,0.0
52106.0,STARLINK-3670,PAYLOAD,2024-07-20 19:52:33,15.08845828,0.0001615,53.2158,248.5419,99.8541,260.2634,0.00011644,1.566e-05,0.0,0 STARLINK-3670,1 52106U 22029U   24202.82816160  .00001566  00000-0  11644-3 0  9998,2 52106  53.2158 248.5419 0001615  99.8541 260.2634 15.08845828130547,6917.863,95.437,540.845,538.61,0.0
52106.0,STARLINK-3670,PAYLOAD,2024-07-21 08:35:39,15.08831456,0.0001759,53.2184,246.1667,107.8483,252.2701,9.8436e-05,1.279e-05,0.0,0 STARLINK-3670,1 52106U 22029U   24203.35809280  .00001279  00000-0  98436-4 0  9998,2 52106  53.2184 246.1667 0001759 107.8483 252.2701 15.08831456130626,6917.907,95.438,540.988,538.555,0.0
52106.0,STARLINK-3670,PAYLOAD,2024-07-22 11:37:12,15.08841562,0.0001358,53.2151,241.1053,87.7347,272.3801,0.00012591,1.717e-05,0.0,0 STARLINK-3670,1 52106U 22029U   24204.48416936  .00001717  00000-0  12591-3 0  9999,2 52106  53.2151 241.1053 0001358  87.7347 272.3801 15.08841562130795,6917.876,95.437,540.68,538.801,0.0
52106.0,STARLINK-3670,PAYLOAD,2024-07-23 09:52:35,15.08846119,0.0001346,53.2138,236.9403,85.589,274.5256,0.00021252,3.097e-05,0.0,0 STARLINK-3670,1 52106U 22029U   24205.41152650  .00003097  00000-0  21252-3 0  9990,2 52106  53.2138 236.9403 0001346  85.5890 274.5256 15.08846119130934,6917.862,95.437,540.658,538.796,0.0
52106.0,STARLINK-3670,PAYLOAD,2024-07-24 08:08:00,15.0883711,0.0001372,53.2139,232.7774,85.5695,274.5454,4.8819e-06,-2.1e-06,0.0,0 STARLINK-3670,1 52106U 22029U   24206.33889185 -.00000210  00000-0  48819-5 0  9997,2 52106  53.2139 232.7774 0001372  85.5695 274.5454 15.08837110131079,6917.889,95.438,540.703,538.805,0.0
52106.0,STARLINK-3670,PAYLOAD,2024-07-25 06:23:24,15.08842335,0.0001384,53.2147,228.615,84.8875,275.2275,8.9112e-05,1.131e-05,0.0,0 STARLINK-3670,1 52106U 22029U   24207.26625054  .00001131  00000-0  89112-4 0  9995,2 52106  53.2147 228.6150 0001384  84.8875 275.2275 15.08842335131215,6917.873,95.437,540.696,538.781,0.0
52106.0,STARLINK-3670,PAYLOAD,2024-07-25 11:09:33,15.08845221,0.0001376,53.2146,227.7224,85.3373,274.7776,0.00010034,1.31e-05,0.0,0 STARLINK-3670,1 52106U 22029U   24207.46496792  .00001310  00000-0  10034-3 0  9997,2 52106  53.2146 227.7224 0001376  85.3373 274.7776 15.08845221131246,6917.864,95.437,540.681,538.778,0.0
52106.0,STARLINK-3670,PAYLOAD,2024-07-26 11:00:19,15.08857344,0.0001419,53.2146,223.2604,85.2904,274.825,0.00027394,4.077e-05,0.0,0 STARLINK-3670,1 52106U 22029U   24208.45855469  .00004077  00000-0  27394-3 0  9997,2 52106  53.2146 223.2604 0001419  85.2904 274.8250 15.08857344131399,6917.827,95.436,540.674,538.711,0.0
52106.0,STARLINK-3670,PAYLOAD,2024-07-27 04:29:34,15.08844362,0.0001542,53.2169,219.9892,109.2212,250.8948,9.2959e-05,1.192e-05,0.0,0 STARLINK-3670,1 52106U 22029U   24209.18720445  .00001192  00000-0  92959-4 0  9998,2 52106  53.2169 219.9892 0001542 109.2212 250.8948 15.08844362131508,6917.867,95.437,540.799,538.665,0.0
52106.0,STARLINK-3670,PAYLOAD,2024-07-27 06:04:57,15.0884435,0.0001426,53.2153,219.6918,110.2101,249.9045,4.8102e-05,4.78e-06,0.0,0 STARLINK-3670,1 52106U 22029U   24209.25344331  .00000478  00000-0  48102-4 0  9999,2 52106  53.2153 219.6918 0001426 110.2101 249.9045 15.08844350131512,6917.867,95.437,540.719,538.746,0.0
52106.0,STARLINK-3670,PAYLOAD,2024-07-27 17:12:39,15.08834374,0.0001214,53.2139,217.6104,100.8926,259.2203,-0.00010436,-1.948e-05,0.0,0 STARLINK-3670,1 52106U 22029U   24209.71712830 -.00001948  00000-0 -10436-3 0  9996,2 52106  53.2139 217.6104 0001214 100.8926 259.2203 15.08834374131588,6917.898,95.438,540.602,538.923,0.0
52106.0,STARLINK-3670,PAYLOAD,2024-07-28 04:20:22,15.08835219,0.0001226,53.2138,215.5272,95.1577,264.9555,-1.7645e-05,-5.69e-06,0.0,0 STARLINK-3670,1 52106U 22029U   24210.18081347 -.00000569  00000-0 -17645-4 0  9999,2 52106  53.2138 215.5272 0001226  95.1577 264.9555 15.08835219131651,6917.895,95.438,540.608,538.912,0.0
52106.0,STARLINK-3670,PAYLOAD,2024-07-28 12:17:17,15.08839511,0.0001229,53.2144,214.043,95.4378,264.6754,2.7745e-05,1.54e-06,0.0,0 STARLINK-3670,1 52106U 22029U   24210.51200930  .00000154  00000-0  27745-4 0  9997,2 52106  53.2144 214.0430 0001229  95.4378 264.6754 15.08839511131706,6917.882,95.438,540.597,538.897,0.0
52106.0,STARLINK-3670,PAYLOAD,2024-07-29 10:32:41,15.08832992,0.0001192,53.2148,209.8803,92.6606,267.4522,0.00012981,1.778e-05,0.0,0 STARLINK-3670,1 52106U 22029U   24211.43937355  .00001778  00000-0  12981-3 0  9995,2 52106  53.2148 209.8803 0001192  92.6606 267.4522 15.08832992131843,6917.902,95.438,540.591,538.942,0.0
52106.0,STARLINK-3670,PAYLOAD,2024-07-29 16:54:14,15.08837337,0.0001209,53.215,208.6909,90.6707,269.4424,0.00015378,2.16e-05,0.0,0 STARLINK-3670,1 52106U 22029U   24211.70433191  .00002160  00000-0  15378-3 0  9993,2 52106  53.2150 208.6909 0001209  90.6707 269.4424 15.08837337131884,6917.889,95.438,540.59,538.917,0.0
52106.0,STARLINK-3670,PAYLOAD,2024-07-30 07:12:42,15.0883887,0.0001267,53.2153,206.0149,90.4153,269.6984,8.1512e-05,1.01e-05,0.0,0 STARLINK-3670,1 52106U 22029U   24212.30049485  .00001010  00000-0  81512-4 0  9996,2 52106  53.2153 206.0149 0001267  90.4153 269.6984 15.08838870131978,6917.884,95.438,540.625,538.872,0.0
52106.0,STARLINK-3670,PAYLOAD,2024-07-30 16:45:01,15.08845684,0.0001292,53.2154,204.2306,86.1428,273.9712,0.0001307,1.793e-05,0.0,0 STARLINK-3670,1 52106U 22029U   24212.69792953  .00001793  00000-0  13070-3 0  9994,2 52106  53.2154 204.2306 0001292  86.1428 273.9712 15.08845684132035,6917.863,95.437,540.622,538.834,0.0
52106.0,STARLINK-3670,PAYLOAD,2024-07-31 03:52:43,15.08845905,0.0001346,53.2155,202.1494,85.6233,274.4913,0.00013153,1.806e-05,0.0,0 STARLINK-3670,1 52106U 22029U   24213.16160935  .00001806  00000-0  13153-3 0  9993,2 52106  53.2155 202.1494 0001346  85.6233 274.4913 15.08845905132102,6917.862,95.437,540.658,538.796,0.0
52106.0,STARLINK-3670,PAYLOAD,2024-07-31 07:03:29,15.08848038,0.0001335,53.2154,201.5546,88.2127,271.9018,0.00015115,2.119e-05,0.0,0 STARLINK-3670,1 52106U 22029U   24213.29408764  .00002119  00000-0  15115-3 0  9990,2 52106  53.2154 201.5546 0001335  88.2127 271.9018 15.08848038132121,6917.856,95.437,540.644,538.797,0.0
52106.0,STARLINK-3670,PAYLOAD,2024-07-31 22:57:20,15.08844751,0.000128,53.2139,198.5832,90.1364,269.9775,0.00010948,1.455e-05,0.0,0 STARLINK-3670,1 52106U 22029U   24213.95648800  .00001455  00000-0  10948-3 0  9991,2 52106  53.2139 198.5832 0001280  90.1364 269.9775 15.08844751132227,6917.866,95.437,540.616,538.845,0.0
52106.0,STARLINK-3670,PAYLOAD,2024-08-01 05:18:53,15.08842369,0.0001266,53.2149,197.3894,88.4473,271.6664,6.1521e-05,6.91e-06,0.0,0 STARLINK-3670,1 52106U 22029U   24214.22145126  .00000691  00000-0  61521-4 0  9990,2 52106  53.2149 197.3894 0001266  88.4473 271.6664 15.08842369132262,6917.873,95.437,540.614,538.862,0.0
52106.0,STARLINK-3670,PAYLOAD,2024-08-02 05:09:40,15.0884366,0.0001309,53.215,192.9302,90.6107,269.5035,5.017e-05,5.11e-06,0.0,0 STARLINK-3670,1 52106U 22029U   24215.21504940  .00000511  00000-0  50170-4 0  9992,2 52106  53.2150 192.9302 0001309  90.6107 269.5035 15.08843660132416,6917.869,95.437,540.64,538.829,0.0
52106.0,STARLINK-3670,PAYLOAD,2024-08-03 05:00:27,15.08837314,0.000124,53.2149,188.4709,86.3931,273.7203,0.00010073,1.316e-05,0.0,0 STARLINK-3670,1 52106U 22029U   24216.20865285  .00001316  00000-0  10073-3 0  9995,2 52106  53.2149 188.4709 0001240  86.3931 273.7203 15.08837314132565,6917.889,95.438,540.611,538.896,0.0
